[{"OBJECT_NAME":"STARLINK-1733","OBJECT_ID":"2020-070AJ","EPOCH":"2026-03-10T00:00:02.999808","MEAN_MOTION":15.74070769,"ECCENTRICITY":0.00019603,"INCLINATION":53.0418,"RA_OF_ASC_NODE":105.8439,"ARG_OF_PERICENTER":358.1851,"MEAN_ANOMALY":270.2405,"EPHEMERIS_TYPE":0,"CLASSIFICATION_TYPE":"U","NORAD_CAT_ID":46564,"ELEMENT_SET_NO":999,"REV_AT_EPOCH":596,"BSTAR":0.0010340128,"MEAN_MOTION_DOT":0.0015282,"MEAN_MOTION_DDOT":0},{"OBJECT_NAME":"STARLINK-36866","OBJECT_ID":"2026-035S","EPOCH":"2026-03-09T22:00:01.999584","MEAN_MOTION":15.86921353,"ECCENTRICITY":0.00013373,"INCLINATION":97.2683,"RA_OF_ASC_NODE":1.2824,"ARG_OF_PERICENTER":88.5761,"MEAN_ANOMALY":21.093,"EPHEMERIS_TYPE":0,"CLASSIFICATION_TYPE":"U","NORAD_CAT_ID":67895,"ELEMENT_SET_NO":999,"REV_AT_EPOCH":379,"BSTAR":-0.0061588879,"MEAN_MOTION_DOT":-0.01379206,"MEAN_MOTION_DDOT":0}]
